ONEWEB-0229             
1 48779U 21045N   24186.86092485 -.00000108  00000+0 -32164-3 0  9999
2 48779  87.9021  40.9539 0001968  81.9499 278.1855 13.15547377150755
ONEWEB-0228             
1 48780U 21045P   24186.95791319  .00000086  00000+0  19657-3 0  9998
2 48780  87.9019  40.9121 0001883  81.0468 279.0875 13.15069321150686
ONEWEB-0232             
1 48781U 21045Q   24186.86884946  .00000014  00000+0  43592-5 0  9996
2 48781  87.9016  40.9480 0001914  81.3666 278.7682 13.15546370150990
ONEWEB-0231             
1 48782U 21045R   24186.84665384 -.00000058  00000+0 -18927-3 0  9990
2 48782  87.9032  40.9850 0002017  76.9511 283.1844 13.15546097150686
ONEWEB-0234             
1 48783U 21045S   24186.63828138 -.00000317  00000+0 -87571-3 0  9995
2 48783  87.9021  40.9840 0000563 114.9793 245.1396 13.15547794150790
ONEWEB-0238             
1 48784U 21045T   24186.89657897  .00000137  00000+0  32969-3 0  9995
2 48784  87.9023  40.9506 0001676  86.1286 274.0036 13.15547881150727
ONEWEB-0240             
1 48785U 21045U   24186.83001854  .00000194  00000+0  48205-3 0  9999
2 48785  87.9023  40.9311 0001798  70.1402 289.9922 13.15550428150742
ONEWEB-0246             
1 48786U 21045V   24186.82446976  .00000203  00000+0  50478-3 0  9993
2 48786  87.9024  40.9371 0001984  82.6769 277.4586 13.15550740150612
